FLOCK 4G-5              
1 62663U 25009BG  26068.45638436  .00011278  00000+0  40688-3 0  9997
2 62663  97.4058 151.2478 0002094 314.5072  45.5996 15.28679529 63699
STARLINK-34229          
1 64250U 25119T   26067.69313362  .00038133  00000+0  13871-2 0  9998
2 64250  42.9995 312.9644 0001327 274.4295  85.6405 15.27603613 44013
